# From MPEC 2022-S20
C/1995 O1 (Hale-Bopp),e,89.3075,282.6916,130.4110,176.9454,0.0004187,0.99496859,0.0000,03/29.6255/1997,2000,g -2.0,4.0
# From NK 1615
P/1996 R2 (Lagerkvist),e,2.6010,40.0086,333.3943,3.774598,0.1343996,0.31456995,180.6428,10/19.0/2022,2000,g 11.5,4.0
# From MPC 75703
P/1998 VS24 (LINEAR),e,5.0265,159.0392,244.6250,4.525416,0.1023803,0.24314361,177.4172,10/19.0/2022,2000,g 13.0,2.0
# From NK 731
P/1999 RO28 (LONEOS),e,7.5656,137.8720,231.2973,3.426502,0.1553916,0.67252407,188.0290,10/19.0/2022,2000,g 20.0,2.0
# From MPC 75704
P/1999 XN120 (Catalina),e,5.0298,285.2963,161.6884,4.179001,0.1153707,0.21040106,226.0291,10/19.0/2022,2000,g 13.5,2.0
# From NK 744
P/2000 R2 (LINEAR),e,11.6866,160.2856,176.5883,3.467664,0.1526330,0.53142568,186.0823,10/19.0/2022,2000,g 18.0,4.0
# From MPC 43019
P/2001 H5 (NEAT),e,8.3671,328.6843,224.7387,6.095961,0.0654848,0.59820483,167.7785,10/19.0/2022,2000,g 12.0,4.0
# From MPC 75704
P/2001 Q6 (NEAT),e,56.9115,22.1848,42.9382,7.958616,0.0438983,0.82334838,338.1652,10/19.0/2022,2000,g 13.5,4.0
# From MPC 47727
P/2002 EJ57 (LINEAR),e,4.9776,330.3080,167.2890,6.463492,0.0599796,0.59238784,95.0460,10/19.0/2022,2000,g 12.5,4.0
# From MPC109588
P/2002 T6 (NEAT-LINEAR),e,10.8520,206.0686,219.5507,7.729475,0.0458648,0.56249631,330.6524,10/19.0/2022,2000,g 10.5,4.0
# From MPC 75007
C/2002 VQ94 (LINEAR),e,70.6906,35.1402,99.9837,184.2987,0.0003939,0.96306568,2.4054,10/19.0/2022,2000,g  9.5,2.0
# From MPC 50354
P/2003 F2 (NEAT),e,11.6112,358.9939,192.2617,6.501935,0.0594484,0.54139268,63.7185,10/19.0/2022,2000,g 16.5,2.0
# From MPC 50139
P/2003 QX29 (NEAT),e,11.3934,264.5153,37.6607,8.015934,0.0434283,0.47255910,315.5939,10/19.0/2022,2000,g  8.5,4.0
# From MPC105235
P/2003 T12 (SOHO),e,11.0225,174.5859,219.7494,2.585452,0.2370825,0.77013807,212.1247,10/19.0/2022,2000,g 17.0,4.0
# From MPEC 2022-TA6
P/2004 A1 (LONEOS),e,10.5517,124.8583,21.1034,7.971005,0.0437960,0.31010536,292.0287,10/19.0/2022,2000,g  6.5,4.0
# From MPC 54558
P/2004 DO29 (Spacewatch-LINEAR),e,14.5311,147.3767,40.5103,7.295599,0.0500164,0.44127501,330.3023,10/19.0/2022,2000,g 13.5,2.0
# From MPC 54823
P/2004 FY140 (LINEAR),e,2.1348,326.7801,242.1110,4.906880,0.0906767,0.16785931,240.3997,10/19.0/2022,2000,g 12.5,2.0
# From MPC 53304
P/2004 R3 (LINEAR-NEAT),e,12.7818,305.3208,37.6841,4.764218,0.0947800,0.25569556,37.2937,10/19.0/2022,2000,g 14.5,4.0
# From MPC 55521
P/2004 V3 (Siding Spring),e,50.4438,356.1295,322.4854,7.130041,0.0517686,0.44593435,339.2900,10/19.0/2022,2000,g 11.5,4.0
# From MPC 75705
P/2004 V5 (LINEAR-Hill),e,19.3430,47.7828,87.5678,7.989721,0.0436422,0.44474112,283.1872,10/19.0/2022,2000,g  8.0,4.0
# From MPC 54164
P/2005 E1 (Tubbiolo),e,4.2631,335.5756,193.8898,7.050266,0.0526497,0.37557603,341.8695,10/19.0/2022,2000,g 10.0,4.0
# From MPC 79019
P/2005 J1 (McNaught),e,31.7392,268.8280,338.9301,3.571883,0.1460018,0.56902662,214.4240,10/19.0/2022,2000,g 16.5,4.0
# From MPC 74246
P/2005 L1 (McNaught),e,7.7293,138.2247,150.0718,3.990435,0.1236442,0.21229969,43.0751,10/19.0/2022,2000,g  9.5,4.0
# From MPC 75706
P/2005 S2 (Skiff),e,3.1356,161.2230,229.4215,8.005215,0.0435156,0.19853705,260.7146,10/19.0/2022,2000,g  7.5,4.0
# From MPC 75706
P/2005 SB216 (LONEOS),e,24.1139,1.1241,83.2460,7.145354,0.0516022,0.46462073,298.8715,10/19.0/2022,2000,g 12.0,2.0
# From MPC 73461
P/2005 T3 (Read),e,6.2238,27.6691,6.6804,7.588331,0.0471503,0.17536212,294.2024,10/19.0/2022,2000,g  9.0,4.0
# From MPC 73461
P/2005 T4 (SWAN),e,160.2676,25.9146,41.8325,9.359124,0.0344232,0.92977882,214.0940,10/19.0/2022,2000,g 15.0,4.0
# From MPC 75706
P/2005 T5 (Broughton),e,21.3788,57.0010,304.6906,7.280718,0.0501698,0.55265808,311.3738,10/19.0/2022,2000,g 11.0,4.0
# From MPC 75707
P/2006 HR30 (Siding Spring),e,31.8596,309.8345,117.3754,7.808811,0.0451676,0.84309693,261.4293,10/19.0/2022,2000,g 11.0,4.0
# From MPEC 2022-TA7
P/2007 A2 (Christensen),e,26.4831,300.9126,186.6924,6.336238,0.0617955,0.55834089,357.5580,10/19.0/2022,2000,g 13.5,4.0
# From MPC 75707
P/2007 C2 (Catalina),e,8.6073,275.3020,180.1718,6.999010,0.0532291,0.47210878,293.4000,10/19.0/2022,2000,g 10.0,4.0
# From MPC 84315
C/2007 D1 (LINEAR),e,41.5016,171.2323,339.8017,1194,0.0000239,0.99263718,0.0000,06/07.1710/2007,2000,g  3.5,4.0
# From MPC 82314
P/2007 K2 (Gibbs),e,7.6275,188.6345,347.3498,7.275713,0.0502216,0.68310761,283.0046,10/19.0/2022,2000,g 14.0,4.0
# From MPC 60925
P/2007 Q2 (Gilmore),e,10.2027,172.1531,162.8529,5.657411,0.0732449,0.67002265,50.6149,10/19.0/2022,2000,g 16.0,4.0
# From MPC 73462
P/2007 S1 (Zhao),e,5.9611,141.3523,245.2150,3.820810,0.1319687,0.33920417,1.5987,10/19.0/2022,2000,g 13.0,4.0
# From MPC 61994
P/2007 T2 (Kowalski),e,9.7521,3.3773,359.6643,3.045638,0.1854329,0.78567644,286.8284,10/19.0/2022,2000,g 18.5,4.0
# From MPC 75709
P/2008 L2 (Hill),e,25.8682,218.0176,141.2629,6.027834,0.0665981,0.61346503,346.4100,10/19.0/2022,2000,g 12.5,4.0
# From MPC 64114
P/2008 O3 (Boattini),e,32.3312,47.5640,341.1670,8.215478,0.0418557,0.69636101,219.8480,10/19.0/2022,2000,g 13.0,4.0
# From MPC 75710
P/2008 Y3 (McNaught),e,38.7789,262.8567,238.0439,8.047613,0.0431721,0.44585411,218.2825,10/19.0/2022,2000,g  8.5,4.0
# From MPC 75710
P/2009 B1 (Boattini),e,22.2355,297.0749,128.9012,6.737087,0.0563632,0.63560314,283.8679,10/19.0/2022,2000,g 13.0,4.0
# From MPC 66466
C/2009 G1 (STEREO),e,108.5127,120.5580,175.5083,465.2182,0.0000982,0.99755083,0.0000,04/18.3437/2009,2000,g  9.0,4.0
# From MPC 75710
P/2009 O3 (Hill),e,16.2888,183.6850,154.4900,7.766953,0.0455332,0.68776907,222.6934,10/19.0/2022,2000,g 12.5,4.0
# From MPC 68902
P/2009 Q5 (McNaught),e,40.9848,160.2741,209.1062,7.429860,0.0486668,0.60983759,232.7661,10/19.0/2022,2000,g 10.0,4.0
# From MPC112389
P/2009 T2 (La Sagra),e,27.6051,215.8983,216.3257,7.718669,0.0459611,0.76642904,214.8936,10/19.0/2022,2000,g 14.0,4.0
# From MPC105235
P/2009 WX51 (Catalina),e,9.5947,31.5658,118.2615,3.082787,0.1820911,0.73940617,127.8530,10/19.0/2022,2000,g 19.0,2.0
# From MPC 74247
P/2009 Y2 (Kowalski),e,29.9615,262.0424,172.1337,6.549615,0.0588004,0.63676587,271.4852,10/19.0/2022,2000,g 13.0,4.0
# From MPC 75711
P/2010 A3 (Hill),e,14.8157,63.6332,42.2836,6.086616,0.0656357,0.73373771,302.5793,10/19.0/2022,2000,g 14.0,4.0
# From MPC 75008
P/2010 C1 (Scotti),e,9.1256,141.8712,3.3722,7.105216,0.0520401,0.26045051,246.5137,10/19.0/2022,2000,g  9.5,4.0
# From MPC 75008
P/2010 D2 (WISE),e,57.0984,319.8833,119.9322,6.721187,0.0565633,0.45142585,262.4397,10/19.0/2022,2000,g 16.0,4.0
# From MPC 75009
P/2010 E2 (Jarnac),e,15.3850,177.8200,8.3022,8.640232,0.0388075,0.71943129,178.2052,10/19.0/2022,2000,g 14.0,4.0
# From MPC 72851
P/2010 H2 (Vales),e,14.2790,64.1866,128.0165,3.832119,0.1313850,0.19662711,245.2980,10/19.0/2022,2000,g  6.0,4.0
# From MPC 70361
P/2010 H3 (SOHO),e,23.0814,77.1029,26.1384,3.036277,0.1862911,0.98537888,0.0000,02/07.8647/2021,2000,g 20.0,2.0
# From MPC 73463
P/2010 H4 (Scotti),e,2.3178,44.7257,179.3169,6.600185,0.0581259,0.26616652,262.5960,10/19.0/2022,2000,g 10.5,4.0
# From MPC 74637
P/2010 H5 (Scotti),e,14.0572,24.7932,174.7383,7.170888,0.0513269,0.15251572,236.0286,10/19.0/2022,2000,g 13.0,2.0
# From MPC 98558
P/2010 J3 (McMillan),e,13.2651,106.4674,157.5779,8.980241,0.0366245,0.72557135,162.5313,10/19.0/2022,2000,g 11.0,4.0
# From MPC 84315
P/2010 JC81 (WISE),e,38.8218,30.8685,12.4278,8.105882,0.0427075,0.77789071,179.1611,10/19.0/2022,2000,g  9.0,4.0
# From MPC 74248
P/2010 T2 (PANSTARRS),e,7.8877,58.5437,352.6388,5.571159,0.0749524,0.32357928,321.4975,10/19.0/2022,2000,g 11.5,4.0
# From MPC 98558
P/2010 TO20 (LINEAR-Grauer),e,2.4787,43.2840,267.4991,5.833073,0.0699613,0.05565912,357.1731,10/19.0/2022,2000,g  9.0,4.0
# From MPC 82316
P/2010 U1 (Boattini),e,8.2203,280.6799,86.2554,6.501687,0.0594518,0.24913827,275.7028,10/19.0/2022,2000,g  9.5,4.0
# From MPEC 2022-OB6
C/2010 U3 (Boattini),e,55.5548,42.9945,88.0395,2562,0.0000076,0.99670569,0.0000,02/25.2824/2019,2000,g  1.0,4.0
# From MPC 79021
P/2010 UH55 (Spacewatch),e,8.0382,232.9046,225.1446,6.654606,0.0574144,0.56372825,242.0165,10/19.0/2022,2000,g 11.0,4.0
# From MPC 75009
P/2010 WK (LINEAR),e,11.4016,11.3336,40.9811,5.762288,0.0712544,0.69049728,314.2973,10/19.0/2022,2000,g 14.5,2.0
# From MPC 84021
P/2011 C2 (Gibbs),e,10.8873,12.1202,160.5063,7.412564,0.0488373,0.26915783,193.3303,10/19.0/2022,2000,g  9.0,4.0
# From MPC 79866
P/2011 FR143 (Lemmon),e,15.9757,190.9492,349.9340,6.863571,0.0548124,0.45064966,233.5778,10/19.0/2022,2000,g 14.0,2.0
# From MPC 82317
P/2011 JB15 (Spacewatch-Boattini),e,19.1464,153.5880,111.0496,7.366160,0.0492995,0.31598905,193.6565,10/19.0/2022,2000,g  9.0,4.0
# From MPC 87913
P/2011 N1 (ASH),e,35.7661,77.5779,330.3865,6.244662,0.0631598,0.54501025,240.0793,10/19.0/2022,2000,g 11.5,4.0
# From MPC 75714
P/2011 NO1 (Elenin),e,15.2445,295.8271,263.7083,5.531848,0.0757528,0.77460543,325.6060,10/19.0/2022,2000,g 15.0,4.0
# From MPEC 2022-ED3
P/2011 P1 (McNaught),e,5.6609,4.2313,349.1405,7.459344,0.0483786,0.32765587,215.8493,10/19.0/2022,2000,g  9.0,4.0
# From MPEC 2022-HC2
P/2011 S1 (Gibbs),e,2.6874,218.8291,192.4956,8.583192,0.0391950,0.20148997,117.0801,10/19.0/2022,2000,g  8.0,4.0
# From MPC 79022
P/2011 UA134 (Spacewatch-PANSTARRS),e,10.4404,40.3987,32.4021,5.609664,0.0741821,0.62977050,296.7937,10/19.0/2022,2000,g 17.5,4.0
# From MPC 77406
P/2011 V1 (Boattini),e,7.3749,46.7835,269.3796,3.857152,0.1301080,0.55010703,192.2576,10/19.0/2022,2000,g 15.5,4.0
# From MPC 82718
P/2011 W1 (PANSTARRS),e,3.7186,161.7848,282.7796,4.666030,0.0977874,0.28802585,24.7515,10/19.0/2022,2000,g 11.5,4.0
# From MPC 79342
P/2011 Y2 (Boattini),e,6.3775,309.3301,131.9476,6.238066,0.0632600,0.71026823,245.4903,10/19.0/2022,2000,g 15.0,4.0
# From MPEC 2022-K19
P/2012 B1 (PANSTARRS),e,7.6101,36.2165,162.3864,6.531782,0.0590414,0.40897182,200.0052,10/19.0/2022,2000,g  9.0,4.0
# From MPC 78590
P/2012 C3 (PANSTARRS),e,9.0920,135.3677,344.9542,9.748681,0.0323806,0.63011148,359.9758,10/06.0/2011,2000,g 13.0,4.0
# From MPC 84931
